[
    {
        "Altitude(m)": 604983.05298409,
        "Argument of Periapsis(deg)": 0.0,
        "Eccentricity": 0.0,
        "Inclination(deg)": 60.0,
        "Latitude(deg)": -0.09266035967096231,
        "Longitude(deg)": -4.916083452012947,
        "Mean Anomaly(deg)": -180.0,
        "RAAN(deg)": 275.0,
        "Satellite Name": "Test1 1221",
        "Satellite Number": 1221,
        "Semi-Major Axis(m)": 6980739.136638005,
        "Time(s)": 0
    },
    {
        "Altitude(m)": 605055.3325275964,
        "Argument of Periapsis(deg)": 0.00010418945913296404,
        "Eccentricity": 0.0,
        "Inclination(deg)": 60.0,
        "Latitude(deg)": -0.6330698029305746,
        "Longitude(deg)": -4.647957682424417,
        "Mean Anomaly(deg)": -179.37989385453815,
        "RAAN(deg)": 274.9995799508602,
        "Satellite Name": "Test1 1221",
        "Satellite Number": 1221,
        "Semi-Major Axis(m)": 6980739.136638005,
        "Time(s)": 10
    }
]